C/2020 A2 (NEOWISE),e,120.6423,286.3092,68.1020,1457,0.0000177,0.99933117,0.0000,01/08.5424/2020,2000,g 13.5,4.0
# From MPEC 2023-A50
C/2020 A3 (ATLAS),h,06/29.2056/2019,146.6725,120.8039,268.3823,1.000957,5.761072,2000,8.0,4.0
# From MPEC 2022-P91
P/2020 A4 (PANSTARRS-Lemmon),e,24.9905,312.3832,144.7672,8.193883,0.0420213,0.65394179,51.2708,03/27.0/2023,2000,g 15.0,4.0
# From MPEC 2020-N08
A/2020 B1,e,18.5185,309.9603,154.7219,51.39217,0.0026752,0.96611749,3.1747,03/27.0/2023,2000,g 21.0,2.0
# From MPEC 2022-N37
C/2020 B3 (Rankin),e,20.7098,185.8485,324.9192,951.9956,0.0000336,0.99649453,0.0000,10/19.4226/2019,2000,g 13.0,4.0
# From MPEC 2022-H04
P/2020 B4 (Sheppard),e,11.6094,185.9792,342.0929,7.966733,0.0438312,0.19178902,21.5826,03/27.0/2023,2000,g 10.5,4.0
# From MPEC 2023-F81
C/2020 F2 (ATLAS),h,07/15.0222/2022,163.5879,250.2873,48.3328,1.005419,8.816769,2000,4.5,4.0
# From MPEC 2021-O56
C/2020 F3 (NEOWISE),e,129.1032,61.0716,37.3585,356.2753,0.0001466,0.99917004,0.0000,07/03.7028/2020,2000,g  7.5,5.2
# From MPEC 2023-C45
C/2020 F5 (MASTER),e,52.2099,350.5031,310.6806,179.6803,0.0004092,0.97593413,0.0000,03/17.6879/2021,2000,g  6.5,3.2
# From MPEC 2020-L06
C/2020 F6 (PANSTARRS),e,174.5830,207.9083,344.5608,403.8366,0.0001214,0.99131799,0.0000,04/11.7260/2020,2000,g 14.5,2.8
# From MPEC 2023-D72
C/2020 F7 (Lemmon),e,93.9507,321.8722,227.9502,589.3245,0.0000689,0.99095225,0.0000,11/13.7557/2021,2000,g  7.0,4.0
# From MPEC 2020-KB7
C/2020 F8 (SWAN),e,110.6536,259.8778,68.1311,255.5561,0.0002413,0.99831923,0.0000,05/27.3760/2020,2000,g 10.0,4.0
# From MPEC 2020-L06
P/2020 G1 (Pimentel),e,18.5086,240.1241,207.5964,3.608404,0.1437909,0.86034294,158.8056,03/27.0/2023,2000,g 17.0,4.0
# From MPEC 2022-YB4
C/2020 H2 (Pruyne),e,124.9234,277.6640,26.6727,190.1604,0.0003759,0.99562708,0.0000,04/27.8237/2020,2000,g 14.0,3.2
# From MPEC 2020-HM1
C/2020 H3 (Wierzchos),p,06/05.7162/2020,62.5292,30.4456,2.300288,270.6227,2000,13.5,4.0
# From MPEC 2020-L06
C/2020 H4 (Leonard),e,84.4984,307.6579,117.5446,47.86601,0.0029762,0.98068233,0.0000,08/29.6393/2020,2000,g 15.0,3.2
# From MPEC 2023-D72
C/2020 H5 (Robinson),e,70.2545,210.6274,326.3455,3840,0.0000041,0.99756716,0.0000,12/10.8941/2020,2000,g  5.0,4.0
# From MPEC 2023-E68
C/2020 H6 (ATLAS),e,79.9777,213.7190,20.3095,12685,0.0000007,0.99962932,0.0000,09/30.7459/2021,2000,g  8.0,3.2
# From MPEC 2020-KB7
C/2020 H7 (Lemmon),e,135.9235,323.5194,82.6780,1405,0.0000187,0.99685380,0.0000,06/02.9510/2020,2000,g 11.0,4.0
# From MPEC 2021-N06
C/2020 H8 (PANSTARRS),e,99.6860,68.4248,128.9406,596.9229,0.0000676,0.99216800,0.0000,06/04.5073/2020,2000,g 10.5,4.0
# From MPEC 2022-ED3
A/2020 H9,e,137.8787,213.1801,312.8404,371.7929,0.0001375,0.99307565,0.0000,12/21.6084/2019,2000,g 18.0,2.0
# From MPEC 2023-E68
C/2020 J1 (SONEAR),h,04/18.6406/2021,142.3049,226.6029,341.7477,1.000770,3.353632,2000,8.5,3.2
# From MPEC 2023-F81
C/2020 K1 (PANSTARRS),e,89.6701,94.3551,213.9843,1691410,0.0000000,0.99999818,0.0000,05/09.0802/2023,2000,g  5.5,4.0
# From MPEC 2021-N06
C/2020 K2 (PANSTARRS),h,08/06.3647/2020,91.0291,288.3909,67.3506,1.003917,8.879868,2000,10.8,4.0
# From MPEC 2020-KF9
C/2020 K3 (Leonard),p,06/01.0032/2020,129.0152,64.4924,1.583069,28.3546,2000,14.5,4.0
# From MPEC 2020-L06
C/2020 K4 (PANSTARRS),e,125.5824,264.1883,308.8606,23.96108,0.0084032,0.92680213,9.3955,03/27.0/2023,2000,g 16.5,4.0
# From MPEC 2021-R75
C/2020 K5 (PANSTARRS),h,06/05.4857/2021,67.1186,86.1629,249.6104,1.001396,1.536648,2000,11.0,4.0
# From MPEC 2023-E68
C/2020 K6 (Rankin),h,09/15.8378/2021,103.6498,291.5509,44.3363,1.003680,5.868867,2000,8.0,4.0
# From MPEC 2023-A50
C/2020 K7 (PANSTARRS),e,32.0416,286.0781,358.2580,98.87291,0.0010025,0.93533622,1.2489,03/27.0/2023,2000,g  8.0,4.0
# From MPEC 2021-P47
C/2020 K8 (Catalina-ATLAS),h,09/14.8128/2020,31.4272,181.5397,259.9590,1.000179,0.472109,2000,15.0,3.2
# From MPEC 2021-BE3
P/2020 K9 (Lemmon-PANSTARRS),e,23.2085,166.2431,197.0514,4.202639,0.1143987,0.32130117,88.3854,03/27.0/2023,2000,g 12.5,4.0
# From MPEC 2023-C45
P/2020 M1 (PANSTARRS),e,8.5396,142.6362,72.6418,5.317154,0.0803869,0.47392196,95.3953,03/27.0/2023,2000,g 14.5,4.0
# From MPEC 2022-H30
C/2020 M3 (ATLAS),e,23.4765,71.1649,328.5512,27.08677,0.0069915,0.95317434,6.1674,03/27.0/2023,2000,g 14.5,4.0
# From MPEC 2023-B57
A/2020 M4,h,11/24.2010/2020,160.1259,348.6226,104.6398,1.001030,5.951125,2000,14.5,2.0
# From MPC xxxxx
P/2020 MK4 (PANSTARRS),e,6.8004,0.7152,104.6928,6.203047,0.0637964,0.01170262,254.2054,03/27.0/2023,2000,g  8.0,4.0
# From MPEC 2023-D72
C/2020 M5 (ATLAS),h,08/19.8596/2021,93.2205,352.0909,126.3080,1.000406,3.003011,2000,9.0,4.0
# From MPEC 2022-GA9
C/2020 N1 (PANSTARRS),h,03/12.3298/2021,29.7232,279.9311,186.7587,1.000459,1.318694,2000,12.5,4.0
# From MPEC 2021-P47
C/2020 N2 (ATLAS),e,161.0340,257.1544,331.3140,104.5043,0.0009226,0.98284296,0.0000,08/24.0563/2020,2000,g 16.0,3.2
# From MPEC 2023-F99
P/2020 O1 (Lemmon-PANSTARRS),e,5.2255,175.9747,104.4898,2.645686,0.2290323,0.11887035,242.5939,03/27.0/2023,2000,g 15.5,4.0
# From MPEC 2022-Y15
C/2020 O2 (Amaral),h,08/28.5504/2021,71.7599,256.7712,10.3070,1.001681,4.862460,2000,8.0,3.2
# From MPEC 2023-C45
P/2020 O3 (PANSTARRS),e,8.4441,266.8187,81.6589,4.647963,0.0983581,0.10318318,77.2693,03/27.0/2023,2000,g 12.0,4.0
# From MPEC 2021-BE3
C/2020 P1 (NEOWISE),h,10/20.4091/2020,45.1689,53.4875,8.8895,1.000312,0.341029,2000,14.0,3.2
# From MPEC 2023-D72
C/2020 P3 (ATLAS),h,04/21.3004/2021,61.8895,19.4654,82.2726,1.001326,6.812499,2000,6.0,4.0
# From MPEC 2022-PB4
C/2020 PV6 (PANSTARRS),e,128.2286,329.1487,71.3871,42.06849,0.0036122,0.94544220,1.9755,03/27.0/2023,2000,g 10.0,4.0
# From MPEC 2022-L66
C/2020 Q1 (Borisov),e,142.9407,52.3907,9.9530,60.86946,0.0020754,0.97835248,0.0000,08/14.4287/2020,2000,g 14.0,4.0
# From MPEC 2023-CD7
C/2020 Q2 (PANSTARRS),e,3.3362,179.8283,118.2680,10.65215,0.0283497,0.49241299,32.6546,03/27.0/2023,2000,g 12.0,3.2
# From MPEC 2022-X67
C/2020 R2 (PANSTARRS),e,53.2281,195.0930,211.7893,409.0080,0.0001192,0.98852666,0.0000,02/24.8728/2022,2000,g  9.0,4.0
# From MPEC 2022-K19
C/2020 R4 (ATLAS),e,164.4531,323.2729,46.6925,99.83988,0.0009880,0.98971196,0.0000,03/02.1504/2021,2000,g 13.5,4.0
# From MPEC 2023-C45
P/2020 R5 (PANSTARRS),e,11.4455,272.9701,82.6096,4.987212,0.0884947,0.31452659,91.2854,03/27.0/2023,2000,g  9.5,6.0
# From MPEC 2021-Y10
C/2020 R6 (Rankin),e,82.8117,12.1780,271.9923,317.6151,0.0001741,0.99013337,0.0000,09/08.6139/2019,2000,g 11.0,4.0
# From MPEC 2023-F81
C/2020 R7 (ATLAS),h,09/16.2527/2022,114.8954,268.2833,347.8415,1.000244,2.955999,2000,7.0,3.2
# From MPEC 2021-BE3
P/2020 S1 (PANSTARRS),e,13.7287,129.4626,255.0206,5.992634,0.0671858,0.50773953,53.6459,03/27.0/2023,2000,g 14.0,4.0
# From MPEC 2022-ST7
C/2020 S2 (PANSTARRS),e,22.4045,197.6623,202.3410,10.22121,0.0301613,0.82811848,24.8774,03/27.0/2023,2000,g 17.0,4.0
# From MPEC 2022-C56
C/2020 S3 (Erasmus),e,20.0164,222.6000,350.0952,153.3747,0.0005189,0.99741716,0.0000,12/12.0948/2020,2000,g 13.5,3.2
# From MPEC 2023-F81
C/2020 S4 (PANSTARRS),h,02/09.2379/2023,20.5694,117.7212,20.9914,1.001252,3.369730,2000,8.5,3.2
# From MPEC 2021-BE3
P/2020 S5 (PANSTARRS),e,12.3478,316.0000,53.2165,4.054186,0.1207393,0.33849756,115.8980,03/27.0/2023,2000,g 14.5,4.0
# From MPEC 2021-BE3
P/2020 S7 (PANSTARRS),e,16.0877,328.0284,40.5808,5.030479,0.0873555,0.41069114,74.9735,03/27.0/2023,2000,g 14.5,4.0
# From MPEC 2021-P47
C/2020 S8 (Lemmon),e,108.5275,24.0682,160.2805,264.2567,0.0002294,0.99106293,0.0000,04/10.8348/2021,2000,g 12.5,4.0
# From MPEC 2022-ST7
C/2020 T2 (Palomar),e,27.8553,82.9723,150.5177,308.8867,0.0001816,0.99333955,0.0000,07/11.0447/2021,2000,g 11.0,3.2
# From MPEC 2021-N06
P/2020 T3 (PANSTARRS),e,7.2987,73.9895,357.0389,3.516986,0.1494335,0.59207770,118.8342,03/27.0/2023,2000,g 18.0,3.2
# From MPEC 2021-N06
C/2020 T4 (PANSTARRS),h,07/05.3257/2021,83.8388,50.6148,79.6074,1.000235,2.191478,2000,13.0,3.2
# From MPEC 2021-BE3
C/2020 T5 (Lemmon),e,66.5609,237.8427,90.3341,755.0135,0.0000475,0.99749513,0.0000,10/09.3596/2020,2000,g 16.0,4.0
# From MPEC 2021-N06
P/2020 U2 (PANSTARRS),e,6.4197,342.8857,84.6446,3.778033,0.1342163,0.51110554,110.1879,03/27.0/2023,2000,g 18.0,4.0
# From MPEC 2021-W31
C/2020 U3 (Rankin),e,30.1583,282.6444,124.3380,66.47514,0.0018185,0.96574605,1.4163,03/27.0/2023,2000,g 15.0,4.0
# From MPEC 2023-CD7
C/2020 U4 (PANSTARRS),h,04/09.4308/2022,167.0264,120.2620,69.9443,1.002271,5.357187,2000,7.0,4.0
# From MPEC 2022-YB4
C/2020 U5 (PANSTARRS),e,97.2726,107.3276,75.4326,3810,0.0000042,0.99901409,0.0000,04/27.9584/2022,2000,g  8.0,4.0
# From MPEC 2023-F81
C/2020 V2 (ZTF),h,05/08.5685/2023,131.6111,212.3719,162.4313,1.000999,2.227839,2000,4.9,4.0
# From MPEC 2023-D72
P/2020 V3 (PANSTARRS),e,23.0331,198.2521,249.3539,8.384521,0.0405963,0.25687193,31.4990,03/27.0/2023,2000,g  8.3,4.0
# From MPEC 2023-F81
P/2020 V4 (Rankin),e,14.2442,203.4829,257.0292,9.367389,0.0343777,0.45038807,21.2045,03/27.0/2023,2000,g  9.0,4.0
# From MPEC 2021-BE3
P/2020 W1 (Rankin),e,10.7873,124.2718,265.1369,7.214154,0.0508658,0.26632734,55.0652,03/27.0/2023,2000,g 10.0,4.0
# From MPEC 2021-BE3
C/2020 W5 (Lemmon),h,11/30.1015/2020,88.5954,75.4713,24.4977,1.000769,3.365211,2000,15.0,4.0
# From MPEC 2023-F81
P/2020 WJ5 (Lemmon),e,22.2937,177.8095,338.1830,6.015962,0.0667954,0.17133642,42.3497,03/27.0/2023,2000,g  8.5,4.0
# From MPEC 2021-P47
P/2020 X1 (ATLAS),e,31.6928,55.9919,323.4233,4.530645,0.1022031,0.36548299,100.0712,03/27.0/2023,2000,g 13.0,4.0
# From MPEC 2021-U31
C/2020 X2 (ATLAS),e,18.1851,105.4232,347.3695,16.45088,0.0147714,0.76736066,12.7172,03/27.0/2023,2000,g 10.6,4.0
# From MPEC 2021-S45
C/2020 X4 (Leonard),e,80.6066,161.8825,140.3063,40.72675,0.0037921,0.87177806,3.2651,03/27.0/2023,2000,g  9.0,4.0
# From MPEC 2023-D72
C/2020 Y2 (ATLAS),e,101.2996,26.5134,266.1346,1109,0.0000267,0.99717558,0.0000,06/17.8086/2022,2000,g  6.5,4.0
# From MPEC 2021-R75
